start=new Date('2022-12-14T00:00:00.000Z').valueOf();
sats=[{"PERIOD":"95.438","RA_OF_ASC_NODE":"55.7263","TLE_LINE1":"1 52700U 22053AW  22347.59991649 -.00000068  00000-0  13863-4 0  9996","EPOCH":"2022-12-13T14:23:52.784736","ECCENTRICITY":"0.00022070","SEMIMAJOR_AXIS":"6917.883","OBJECT_NAME":"STARLINK-4034","MEAN_ELEMENT_THEORY":"SGP4","BSTAR":"0.00001386300000","REV_AT_EPOCH":"3263","COUNTRY_CODE":"US","ARG_OF_PERICENTER":"37.6085","TIME_SYSTEM":"UTC","OBJECT_ID":"2022-053AW","GP_ID":"220322618","NORAD_CAT_ID":"52700","SITE":"AFETR","PERIAPSIS":"538.222","MEAN_MOTION":"15.08839020","MEAN_MOTION_DDOT":"0.0000000000000","CLASSIFICATION_TYPE":"U","MEAN_ANOMALY":"322.5061","OBJECT_TYPE":"PAYLOAD","ELEMENT_SET_NO":"999","LAUNCH_DATE":"2022-05-18","FILE":"3698003","APOAPSIS":"541.275","MEAN_MOTION_DOT":"-0.00000068","REF_FRAME":"TEME","DECAY_DATE":null,"INCLINATION":"53.2196","EPHEMERIS_TYPE":"0","RCS_SIZE":"LARGE","CENTER_NAME":"EARTH","TLE_LINE2":"2 52700  53.2196  55.7263 0002207  37.6085 322.5061 15.08839020 32639"},{"COUNTRY_CODE":"US","REV_AT_EPOCH":"3286","OBJECT_ID":"2022-053AX","ARG_OF_PERICENTER":"37.6294","TIME_SYSTEM":"UTC","GP_ID":"220322369","NORAD_CAT_ID":"52701","SITE":"AFETR","MEAN_ELEMENT_THEORY":"SGP4","BSTAR":"0.00000570790000","EPOCH":"2022-12-13T15:09:31.754592","ECCENTRICITY":"0.00023930","SEMIMAJOR_AXIS":"6917.885","OBJECT_NAME":"STARLINK-4003","RA_OF_ASC_NODE":"40.5967","PERIOD":"95.438","TLE_LINE1":"1 52701U 22053AX  22347.63161753 -.00000198  00000-0  57079-5 0  9999","INCLINATION":"53.2180","CENTER_NAME":"EARTH","RCS_SIZE":"LARGE","EPHEMERIS_TYPE":"0","TLE_LINE2":"2 52701  53.2180  40.5967 0002393  37.6294 322.4865 15.08838440 32865","FILE":"3698003","APOAPSIS":"541.406","DECAY_DATE":null,"REF_FRAME":"TEME","MEAN_MOTION_DOT":"-0.00000198","LAUNCH_DATE":"2022-05-18","PERIAPSIS":"538.095","MEAN_MOTION":"15.08838440","MEAN_MOTION_DDOT":"0.0000000000000","MEAN_ANOMALY":"322.4865","CLASSIFICATION_TYPE":"U","OBJECT_TYPE":"PAYLOAD","ELEMENT_SET_NO":"999"},{"TLE_LINE1":"1 52702U 22053AY  22347.59256214 -.00000592  00000-0 -19057-4 0  9994","RA_OF_ASC_NODE":"55.7688","PERIOD":"95.437","OBJECT_NAME":"STARLINK-4033","SEMIMAJOR_AXIS":"6917.874","ECCENTRICITY":"0.00022360","EPOCH":"2022-12-13T14:13:17.368896","BSTAR":"-0.00001905700000","MEAN_ELEMENT_THEORY":"SGP4","SITE":"AFETR","GP_ID":"220323620","NORAD_CAT_ID":"52702","ARG_OF_PERICENTER":"36.8445","TIME_SYSTEM":"UTC","OBJECT_ID":"2022-053AY","REV_AT_EPOCH":"3263","COUNTRY_CODE":"US","OBJECT_TYPE":"PAYLOAD","ELEMENT_SET_NO":"999","CLASSIFICATION_TYPE":"U","MEAN_ANOMALY":"323.2700","MEAN_MOTION":"15.08842100","MEAN_MOTION_DDOT":"0.0000000000000","PERIAPSIS":"538.192","LAUNCH_DATE":"2022-05-18","REF_FRAME":"TEME","MEAN_MOTION_DOT":"-0.00000592","DECAY_DATE":null,"APOAPSIS":"541.286","FILE":"3698003","TLE_LINE2":"2 52702  53.2191  55.7688 0002236  36.8445 323.2700 15.08842100 32631","EPHEMERIS_TYPE":"0","CENTER_NAME":"EARTH","RCS_SIZE":"LARGE","INCLINATION":"53.2191"},{"FILE":"3698003","APOAPSIS":"541.430","DECAY_DATE":null,"MEAN_MOTION_DOT":"0.00000835","REF_FRAME":"TEME","INCLINATION":"53.2178","RCS_SIZE":"LARGE","CENTER_NAME":"EARTH","EPHEMERIS_TYPE":"0","TLE_LINE2":"2 52703  53.2178  40.6435 0002453  32.6521 327.4623 15.08844127 31584","PERIAPSIS":"538.036","MEAN_MOTION":"15.08844127","MEAN_MOTION_DDOT":"0.0000000000000","CLASSIFICATION_TYPE":"U","MEAN_ANOMALY":"327.4623","ELEMENT_SET_NO":"999","OBJECT_TYPE":"PAYLOAD","LAUNCH_DATE":"2022-05-18","MEAN_ELEMENT_THEORY":"SGP4","BSTAR":"0.00007054700000","COUNTRY_CODE":"US","REV_AT_EPOCH":"3158","OBJECT_ID":"2022-053AZ","TIME_SYSTEM":"UTC","ARG_OF_PERICENTER":"32.6521","NORAD_CAT_ID":"52703","GP_ID":"220323363","SITE":"AFETR","RA_OF_ASC_NODE":"40.6435","PERIOD":"95.437","TLE_LINE1":"1 52703U 22053AZ  22347.62057843  .00000835  00000-0  70547-4 0  9995","EPOCH":"2022-12-13T14:53:37.976352","ECCENTRICITY":"0.00024530","SEMIMAJOR_AXIS":"6917.868","OBJECT_NAME":"STARLINK-4020"},{"EPOCH":"2022-12-13T13:39:26.903232","ECCENTRICITY":"0.00026270","SEMIMAJOR_AXIS":"6917.860","OBJECT_NAME":"STARLINK-3999","PERIOD":"95.437","RA_OF_ASC_NODE":"40.8772","TLE_LINE1":"1 52704U 22053BA  22347.56906138  .00000927  00000-0  76320-4 0  9996","REV_AT_EPOCH":"3285","COUNTRY_CODE":"US","TIME_SYSTEM":"UTC","ARG_OF_PERICENTER":"33.5008","OBJECT_ID":"2022-053BA","GP_ID":"220279350","NORAD_CAT_ID":"52704","SITE":"AFETR","MEAN_ELEMENT_THEORY":"SGP4","BSTAR":"0.00007632000000","LAUNCH_DATE":"2022-05-18","PERIAPSIS":"537.908","MEAN_MOTION":"15.08846722","MEAN_MOTION_DDOT":"0.0000000000000","MEAN_ANOMALY":"326.6150","CLASSIFICATION_TYPE":"U","ELEMENT_SET_NO":"999","OBJECT_TYPE":"PAYLOAD","INCLINATION":"53.2176","EPHEMERIS_TYPE":"0","RCS_SIZE":"LARGE","CENTER_NAME":"EARTH","TLE_LINE2":"2 52704  53.2176  40.8772 0002627  33.5008 326.6150 15.08846722 32852","FILE":"3697190","APOAPSIS":"541.542","MEAN_MOTION_DOT":"0.00000927","REF_FRAME":"TEME","DECAY_DATE":null},{"GP_ID":"220322869","NORAD_CAT_ID":"52705","SITE":"AFETR","COUNTRY_CODE":"US","REV_AT_EPOCH":"3286","OBJECT_ID":"2022-053BB","ARG_OF_PERICENTER":"27.1696","TIME_SYSTEM":"UTC","MEAN_ELEMENT_THEORY":"SGP4","BSTAR":"0.00103930000000","SEMIMAJOR_AXIS":"6917.858","OBJECT_NAME":"STARLINK-3844","EPOCH":"2022-12-13T14:58:57.049824","ECCENTRICITY":"0.00029100","RA_OF_ASC_NODE":"40.6317","PERIOD":"95.437","TLE_LINE1":"1 52705U 22053BB  22347.62427141  .00016295  00000-0  10393-2 0  9997","TLE_LINE2":"2 52705  53.2160  40.6317 0002910  27.1696 332.9448 15.08847247 32860","INCLINATION":"53.2160","RCS_SIZE":"LARGE","CENTER_NAME":"EARTH","EPHEMERIS_TYPE":"0","DECAY_DATE":null,"MEAN_MOTION_DOT":"0.00016295","REF_FRAME":"TEME","FILE":"3698003","APOAPSIS":"541.736","LAUNCH_DATE":"2022-05-18","MEAN_ANOMALY":"332.9448","CLASSIFICATION_TYPE":"U","ELEMENT_SET_NO":"999","OBJECT_TYPE":"PAYLOAD","PERIAPSIS":"537.710","MEAN_MOTION_DDOT":"0.0000000000000","MEAN_MOTION":"15.08847247"},{"LAUNCH_DATE":"2022-05-18","OBJECT_TYPE":"PAYLOAD","ELEMENT_SET_NO":"999","CLASSIFICATION_TYPE":"U","MEAN_ANOMALY":"333.0351","MEAN_MOTION":"15.08848567","MEAN_MOTION_DDOT":"0.0000000000000","PERIAPSIS":"537.812","TLE_LINE2":"2 52706  53.2165  40.6140 0002757  27.0784 333.0351 15.08848567 32867","CENTER_NAME":"EARTH","RCS_SIZE":"LARGE","EPHEMERIS_TYPE":"0","INCLINATION":"53.2165","DECAY_DATE":null,"MEAN_MOTION_DOT":"0.00000896","REF_FRAME":"TEME","APOAPSIS":"541.626","FILE":"3698003","OBJECT_NAME":"STARLINK-3970","SEMIMAJOR_AXIS":"6917.854","ECCENTRICITY":"0.00027570","EPOCH":"2022-12-13T15:04:13.374912","TLE_LINE1":"1 52706U 22053BC  22347.62793258  .00000896  00000-0  74376-4 0  9996","PERIOD":"95.437","RA_OF_ASC_NODE":"40.6140","SITE":"AFETR","GP_ID":"220323120","NORAD_CAT_ID":"52706","OBJECT_ID":"2022-053BC","TIME_SYSTEM":"UTC","ARG_OF_PERICENTER":"27.0784","COUNTRY_CODE":"US","REV_AT_EPOCH":"3286","BSTAR":"0.00007437600000","MEAN_ELEMENT_THEORY":"SGP4"},{"COUNTRY_CODE":"US","REV_AT_EPOCH":"3289","OBJECT_ID":"2022-053BD","TIME_SYSTEM":"UTC","ARG_OF_PERICENTER":"28.5364","NORAD_CAT_ID":"52707","GP_ID":"220278101","SITE":"AFETR","MEAN_ELEMENT_THEORY":"SGP4","BSTAR":"0.00004956500000","EPOCH":"2022-12-13T10:03:33.080832","ECCENTRICITY":"0.00025040","SEMIMAJOR_AXIS":"6917.896","OBJECT_NAME":"STARLINK-4007","PERIOD":"95.438","RA_OF_ASC_NODE":"41.5471","TLE_LINE1":"1 52707U 22053BD  22347.41913288  .00000500  00000-0  49565-4 0  9995","INCLINATION":"53.2195","CENTER_NAME":"EARTH","RCS_SIZE":"LARGE","EPHEMERIS_TYPE":"0","TLE_LINE2":"2 52707  53.2195  41.5471 0002504  28.5364 331.5765 15.08834807 32895","FILE":"3697190","APOAPSIS":"541.494","DECAY_DATE":null,"REF_FRAME":"TEME","MEAN_MOTION_DOT":"0.00000500","LAUNCH_DATE":"2022-05-18","PERIAPSIS":"538.029","MEAN_MOTION_DDOT":"0.0000000000000","MEAN_MOTION":"15.08834807","MEAN_ANOMALY":"331.5765","CLASSIFICATION_TYPE":"U","OBJECT_TYPE":"PAYLOAD","ELEMENT_SET_NO":"999"},{"EPHEMERIS_TYPE":"0","CENTER_NAME":"EARTH","RCS_SIZE":"LARGE","INCLINATION":"53.2209","TLE_LINE2":"2 52708  53.2209  40.5041 0002576  33.9747 326.1410 15.08838315 33074","APOAPSIS":"541.533","FILE":"3698003","MEAN_MOTION_DOT":"-0.00001849","REF_FRAME":"TEME","DECAY_DATE":null,"LAUNCH_DATE":"2022-05-18","MEAN_MOTION_DDOT":"0.0000000000000","MEAN_MOTION":"15.08838315","PERIAPSIS":"537.968","ELEMENT_SET_NO":"999","OBJECT_TYPE":"PAYLOAD","MEAN_ANOMALY":"326.1410","CLASSIFICATION_TYPE":"U","TIME_SYSTEM":"UTC","ARG_OF_PERICENTER":"33.9747","OBJECT_ID":"2022-053BE","REV_AT_EPOCH":"3307","COUNTRY_CODE":"US","SITE":"AFETR","NORAD_CAT_ID":"52708","GP_ID":"220322619","BSTAR":"-0.00009809800000","MEAN_ELEMENT_THEORY":"SGP4","ECCENTRICITY":"0.00025760","EPOCH":"2022-12-13T15:37:24.277152","OBJECT_NAME":"STARLINK-3962","SEMIMAJOR_AXIS":"6917.886","TLE_LINE1":"1 52708U 22053BE  22347.65097543 -.00001849  00000-0 -98098-4 0  9993","RA_OF_ASC_NODE":"40.5041","PERIOD":"95.438"},{"APOAPSIS":"541.346","FILE":"3698003","DECAY_DATE":null,"MEAN_MOTION_DOT":"-0.00000389","REF_FRAME":"TEME","RCS_SIZE":"LARGE","CENTER_NAME":"EARTH","EPHEMERIS_TYPE":"0","INCLINATION":"53.2185","TLE_LINE2":"2 52830  53.2185 300.8146 0002283  35.9350 324.1795 15.08832934 27324","MEAN_MOTION_DDOT":"0.0000000000000","MEAN_MOTION":"15.08832934","PERIAPSIS":"538.188","ELEMENT_SET_NO":"999","OBJECT_TYPE":"PAYLOAD","MEAN_ANOMALY":"324.1795","CLASSIFICATION_TYPE":"U","LAUNCH_DATE":"2022-06-17","BSTAR":"-0.00000632280000","MEAN_ELEMENT_THEORY":"SGP4","OBJECT_ID":"2022-062A","TIME_SYSTEM":"UTC","ARG_OF_PERICENTER":"35.9350","COUNTRY_CODE":"US","REV_AT_EPOCH":"2732","SITE":"AFETR","NORAD_CAT_ID":"52830","GP_ID":"220322630","TLE_LINE1":"1 52830U 22062A   22347.57826189 -.00000389  00000-0 -63228-5 0  9992","RA_OF_ASC_NODE":"300.8146","PERIOD":"95.438","ECCENTRICITY":"0.00022830","EPOCH":"2022-12-13T13:52:41.827296","OBJECT_NAME":"STARLINK-4091","SEMIMAJOR_AXIS":"6917.902"}];
